NORAD_CAT_ID,OBJECT_NAME,OBJECT_TYPE,EPOCH,MEAN_MOTION,ECCENTRICITY,INCLINATION,RA_OF_ASC_NODE,ARG_OF_PERICENTER,MEAN_ANOMALY,BSTAR,MEAN_MOTION_DOT,MEAN_MOTION_DDOT,TLE_LINE0,TLE_LINE1,TLE_LINE2,SEMIMAJOR_AXIS,PERIOD,APOGEE,PERIGEE,DECAYED
53908.0,STARLINK-5057,PAYLOAD,2023-03-27 18:29:08,15.08854213,0.0001097,53.216,113.2331,120.7863,239.3237,0.00069288,0.00010761,0.0,0 STARLINK-5057,1 53908U 22119Y   23086.77023917  .00010761  00000-0  69288-3 0  9996,2 53908  53.2160 113.2331 0001097 120.7863 239.3237 15.08854213 28671,6917.837,95.437,540.461,538.943,0.0
53908.0,STARLINK-5057,PAYLOAD,2023-03-28 05:36:50,15.08840926,0.0001386,53.217,111.1535,118.5059,241.6073,0.00051802,7.966e-05,0.0,0 STARLINK-5057,1 53908U 22119Y   23087.23392172  .00007966  00000-0  51802-3 0  9996,2 53908  53.2170 111.1535 0001386 118.5059 241.6073 15.08840926 28746,6917.878,95.437,540.701,538.784,0.0
53908.0,STARLINK-5057,PAYLOAD,2023-03-28 10:23:00,15.08845816,0.0001346,53.217,110.2605,115.8114,244.3017,0.00032624,4.909e-05,0.0,0 STARLINK-5057,1 53908U 22119Y   23087.43264045  .00004909  00000-0  32624-3 0  9990,2 53908  53.2170 110.2605 0001346 115.8114 244.3017 15.08845816 29193,6917.863,95.437,540.659,538.796,0.0
53908.0,STARLINK-5057,PAYLOAD,2023-03-28 18:19:55,15.08845521,0.0001252,53.2174,108.7736,111.323,248.7896,0.00022497,3.295e-05,0.0,0 STARLINK-5057,1 53908U 22119Y   23087.76384043  .00003295  00000-0  22497-3 0  9991,2 53908  53.2174 108.7736 0001252 111.3230 248.7896 15.08845521 29242,6917.864,95.437,540.595,538.862,0.0
53908.0,STARLINK-5057,PAYLOAD,2023-03-29 05:27:37,15.08846715,0.0001327,53.2179,106.6927,113.0825,247.0307,0.00030337,4.544e-05,0.0,0 STARLINK-5057,1 53908U 22119Y   23088.22751982  .00004544  00000-0  30337-3 0  9993,2 53908  53.2179 106.6927 0001327 113.0825 247.0307 15.08846715 28893,6917.86,95.437,540.643,538.807,0.0
53908.0,STARLINK-5057,PAYLOAD,2023-03-29 10:13:46,15.08851608,0.0001349,53.2176,105.8002,109.564,250.5497,0.00031285,4.696e-05,0.0,0 STARLINK-5057,1 53908U 22119Y   23088.42623763  .00004696  00000-0  31285-3 0  9991,2 53908  53.2176 105.8002 0001349 109.5640 250.5497 15.08851608 29341,6917.845,95.437,540.643,538.777,0.0
53908.0,STARLINK-5057,PAYLOAD,2023-03-29 18:10:42,15.08840698,6.32e-05,53.2181,104.3124,106.9727,253.1334,2.7943e-05,1.57e-06,0.0,0 STARLINK-5057,1 53908U 22119Y   23088.75743810  .00000157  00000-0  27943-4 0  9998,2 53908  53.2181 104.3124 0000632 106.9727 253.1334 15.08840698 28971,6917.878,95.438,540.18,539.306,0.0
53908.0,STARLINK-5057,PAYLOAD,2023-03-30 13:15:20,15.08854641,0.0001087,53.2169,100.7426,90.9234,269.1883,0.00042985,6.563e-05,0.0,0 STARLINK-5057,1 53908U 22119Y   23089.55231604  .00006563  00000-0  42985-3 0  9999,2 53908  53.2169 100.7426 0001087  90.9234 269.1883 15.08854641 29095,6917.836,95.437,540.453,538.949,0.0
53908.0,STARLINK-5057,PAYLOAD,2023-03-31 06:44:34,15.08838674,6e-05,53.2199,97.4727,353.7488,6.3496,8.523e-05,1.069e-05,0.0,0 STARLINK-5057,1 53908U 22119Y   23090.28095845  .00001069  00000-0  85230-4 0  9993,2 53908  53.2199  97.4727 0000600 353.7488   6.3496 15.08838674 29207,6917.884,95.438,540.165,539.334,0.0
53908.0,STARLINK-5057,PAYLOAD,2023-04-01 09:46:08,15.08842665,0.0001287,53.2163,92.4162,83.326,276.7878,0.0002795,4.163e-05,0.0,0 STARLINK-5057,1 53908U 22119Y   23091.40704329  .00004163  00000-0  27950-3 0  9994,2 53908  53.2163  92.4162 0001287  83.3260 276.7878 15.08842665 29372,6917.872,95.437,540.628,538.847,0.0
53908.0,STARLINK-5057,PAYLOAD,2023-04-02 06:26:09,15.08845253,0.0001472,53.2168,88.5505,79.9998,280.1161,0.00039539,6.011e-05,0.0,0 STARLINK-5057,1 53908U 22119Y   23092.26816624  .00006011  00000-0  39539-3 0  9991,2 53908  53.2168  88.5505 0001472  79.9998 280.1161 15.08845253 29504,6917.864,95.437,540.748,538.711,0.0
53908.0,STARLINK-5057,PAYLOAD,2023-04-02 11:12:18,15.0885315,0.0001497,53.2167,87.6587,80.2039,279.9122,0.00050394,7.744e-05,0.0,0 STARLINK-5057,1 53908U 22119Y   23092.46688317  .00007744  00000-0  50394-3 0  9995,2 53908  53.2167  87.6587 0001497  80.2039 279.9122 15.08853150 29958,6917.84,95.437,540.741,538.67,0.0
53908.0,STARLINK-5057,PAYLOAD,2023-04-03 06:16:56,15.08846263,0.0001327,53.2168,84.0909,91.2117,268.9027,0.00020535,2.982e-05,0.0,0 STARLINK-5057,1 53908U 22119Y   23093.26176407  .00002982  00000-0  20535-3 0  9999,2 53908  53.2168  84.0909 0001327  91.2117 268.9027 15.08846263 29655,6917.861,95.437,540.644,538.808,0.0
53908.0,STARLINK-5057,PAYLOAD,2023-04-03 11:03:05,15.08847819,0.0001371,53.2181,83.1979,95.9926,264.1223,0.00022543,3.302e-05,0.0,0 STARLINK-5057,1 53908U 22119Y   23093.46048240  .00003302  00000-0  22543-3 0  9992,2 53908  53.2181  83.1979 0001371  95.9926 264.1223 15.08847819 30101,6917.856,95.437,540.67,538.773,0.0
53908.0,STARLINK-5057,PAYLOAD,2023-04-03 15:49:15,15.08834855,0.0001921,53.2179,82.3042,88.3554,271.7658,-5.1034e-05,-1.1e-05,0.0,0 STARLINK-5057,1 53908U 22119Y   23093.65920865 -.00001100  00000-0 -51034-4 0  9999,2 53908  53.2179  82.3042 0001921  88.3554 271.7658 15.08834855 29711,6917.896,95.438,541.09,538.432,0.0
53908.0,STARLINK-5057,PAYLOAD,2023-04-04 06:07:43,15.08849655,0.0001165,53.2168,79.6296,101.7882,258.3241,0.00030826,4.623e-05,0.0,0 STARLINK-5057,1 53908U 22119Y   23094.25536167  .00004623  00000-0  30826-3 0  9990,2 53908  53.2168  79.6296 0001165 101.7882 258.3241 15.08849655 29806,6917.851,95.437,540.522,538.91,0.0
53908.0,STARLINK-5057,PAYLOAD,2023-04-04 10:53:52,15.08853578,0.0001223,53.217,78.7372,104.7614,255.3514,0.00061894,9.58e-05,0.0,0 STARLINK-5057,1 53908U 22119Y   23094.45408121  .00009580  00000-0  61894-3 0  9996,2 53908  53.2170  78.7372 0001223 104.7614 255.3514 15.08853578 30255,6917.839,95.437,540.55,538.858,0.0
53908.0,STARLINK-5057,PAYLOAD,2023-04-04 22:01:35,15.08827869,0.0001134,53.2179,76.6552,81.2804,278.8316,0.00014456,2.013e-05,0.0,0 STARLINK-5057,1 53908U 22119Y   23094.91776729  .00002013  00000-0  14456-3 0  9995,2 53908  53.2179  76.6552 0001134  81.2804 278.8316 15.08827869 30324,6917.917,95.438,540.567,538.998,0.0
53908.0,STARLINK-5057,PAYLOAD,2023-04-05 05:58:30,15.08834119,0.0001074,53.217,75.1677,104.2967,255.8145,0.00011858,1.6e-05,0.0,0 STARLINK-5057,1 53908U 22119Y   23095.24896864  .00001600  00000-0  11858-3 0  9999,2 53908  53.2170  75.1677 0001074 104.2967 255.8145 15.08834119 29954,6917.898,95.438,540.506,539.02,0.0
53908.0,STARLINK-5057,PAYLOAD,2023-04-05 09:09:17,15.08836868,0.0001251,53.2181,74.5739,82.2717,277.8417,0.00027427,4.079e-05,0.0,0 STARLINK-5057,1 53908U 22119Y   23095.38145079  .00004079  00000-0  27427-3 0  9991,2 53908  53.2181  74.5739 0001251  82.2717 277.8417 15.08836868 30392,6917.89,95.438,540.62,538.89,0.0
53908.0,STARLINK-5057,PAYLOAD,2023-04-06 05:49:17,15.08865635,0.0001181,53.2175,70.7082,94.3657,265.747,0.0010425,0.00016354,0.0,0 STARLINK-5057,1 53908U 22119Y   23096.24256387  .00016354  00000-0  10425-2 0  9990,2 53908  53.2175  70.7082 0001181  94.3657 265.7470 15.08865635 30101,6917.802,95.436,540.484,538.85,0.0
53908.0,STARLINK-5057,PAYLOAD,2023-04-06 10:35:26,15.08870163,0.0001164,53.217,69.8156,94.9327,265.1798,0.00094431,0.00014785,0.0,0 STARLINK-5057,1 53908U 22119Y   23096.44128014  .00014785  00000-0  94431-3 0  9993,2 53908  53.2170  69.8156 0001164  94.9327 265.1798 15.08870163 30556,6917.788,95.436,540.458,538.848,0.0
53908.0,STARLINK-5057,PAYLOAD,2023-04-06 15:21:36,15.08834343,0.0001018,53.2175,68.9242,82.4466,277.6642,-0.00049638,-8.178e-05,0.0,0 STARLINK-5057,1 53908U 22119Y   23096.64000619 -.00008178  00000-0 -49638-3 0  9995,2 53908  53.2175  68.9242 0001018  82.4466 277.6642 15.08834343 30164,6917.898,95.438,540.467,539.058,0.0
53908.0,STARLINK-5057,PAYLOAD,2023-04-07 07:15:28,15.08843925,0.0001213,53.2174,65.9506,83.0664,277.0466,0.00066757,0.00010354,0.0,0 STARLINK-5057,1 53908U 22119Y   23097.30240972  .00010354  00000-0  66757-3 0  9995,2 53908  53.2174  65.9506 0001213  83.0664 277.0466 15.08843925 30262,6917.868,95.437,540.573,538.894,0.0
53908.0,STARLINK-5057,PAYLOAD,2023-04-07 15:12:24,15.08840204,0.0001295,53.2171,64.4645,79.3453,280.7685,0.0010156,0.00015912,0.0,0 STARLINK-5057,1 53908U 22119Y   23097.63361354  .00015912  00000-0  10156-2 0  9995,2 53908  53.2171  64.4645 0001295  79.3453 280.7685 15.08840204 30318,6917.88,95.438,540.641,538.849,0.0
53908.0,STARLINK-5057,PAYLOAD,2023-04-08 03:55:29,15.08850614,0.0001332,53.2175,62.0858,79.1366,280.9776,0.00080632,0.00012572,0.0,0 STARLINK-5057,1 53908U 22119Y   23098.16353204  .00012572  00000-0  80632-3 0  9995,2 53908  53.2175  62.0858 0001332  79.1366 280.9776 15.08850614 30819,6917.848,95.437,540.634,538.791,0.0
53908.0,STARLINK-5057,PAYLOAD,2023-04-09 03:46:16,15.08850007,0.0001453,53.2188,57.6273,92.8658,267.2501,0.00056457,8.711e-05,0.0,0 STARLINK-5057,1 53908U 22119Y   23099.15713093  .00008711  00000-0  56457-3 0  9999,2 53908  53.2188  57.6273 0001453  92.8658 267.2501 15.08850007 30544,6917.85,95.437,540.72,538.71,0.0
53908.0,STARLINK-5057,PAYLOAD,2023-04-09 22:50:53,15.08838975,0.0001415,53.2188,54.0588,96.9057,263.2096,0.0002247,3.29e-05,0.0,0 STARLINK-5057,1 53908U 22119Y   23099.95201348  .00003290  00000-0  22470-3 0  9997,2 53908  53.2188  54.0588 0001415  96.9057 263.2096 15.08838975 30668,6917.884,95.438,540.727,538.77,0.0
53908.0,STARLINK-5057,PAYLOAD,2023-04-10 03:37:03,15.08845669,0.0001157,53.2198,53.1679,97.4402,262.6721,0.00021065,3.067e-05,0.0,0 STARLINK-5057,1 53908U 22119Y   23100.15073224  .00003067  00000-0  21065-3 0  9993,2 53908  53.2198  53.1679 0001157  97.4402 262.6721 15.08845669 31110,6917.863,95.437,540.528,538.928,0.0
53908.0,STARLINK-5057,PAYLOAD,2023-04-10 21:06:17,15.08840273,0.0001301,53.2189,49.8969,106.378,253.7356,6.2672e-05,7.1e-06,0.0,0 STARLINK-5057,1 53908U 22119Y   23100.87937442  .00000710  00000-0  62672-4 0  9995,2 53908  53.2189  49.8969 0001301 106.3780 253.7356 15.08840273 31227,6917.88,95.438,540.645,538.845,0.0
